start=new Date('2023-03-07T00:00:00.000Z').valueOf();
sats=[{"CLASSIFICATION_TYPE":"U","LAUNCH_DATE":"2022-03-03","MEAN_MOTION_DDOT":"0.0000000000000","PERIAPSIS":"538.886","ECCENTRICITY":"0.00012390","REF_FRAME":"TEME","EPHEMERIS_TYPE":"0","INCLINATION":"53.2149","MEAN_MOTION_DOT":"0.00002254","OBJECT_TYPE":"PAYLOAD","ARG_OF_PERICENTER":"79.9360","SITE":"AFETR","DECAY_DATE":null,"TLE_LINE1":"1 51888U 22022AN  23065.77718092  .00002254  00000-0  15967-3 0  9999","MEAN_MOTION":"15.08840895","EPOCH":"2023-03-06T18:39:08.431488","MEAN_ELEMENT_THEORY":"SGP4","NORAD_CAT_ID":"51888","CENTER_NAME":"EARTH","APOAPSIS":"540.600","FILE":"3853141","SEMIMAJOR_AXIS":"6917.878","GP_ID":"227627397","MEAN_ANOMALY":"280.1772","TLE_LINE2":"2 51888  53.2149 252.3331 0001239  79.9360 280.1772 15.08840895 57359","PERIOD":"95.437","TIME_SYSTEM":"UTC","RCS_SIZE":"LARGE","BSTAR":"0.00015967000000","OBJECT_ID":"2022-022AN","RA_OF_ASC_NODE":"252.3331","REV_AT_EPOCH":"5735","COUNTRY_CODE":"US","ELEMENT_SET_NO":"999","OBJECT_NAME":"STARLINK-3536"},{"BSTAR":"0.00048513000000","OBJECT_ID":"2022-022AP","PERIOD":"95.437","TLE_LINE2":"2 51889  53.2136 251.8217 0000768  94.7751 265.3328 15.08854126 57363","RCS_SIZE":"LARGE","TIME_SYSTEM":"UTC","GP_ID":"227627647","MEAN_ANOMALY":"265.3328","CENTER_NAME":"EARTH","APOAPSIS":"540.234","NORAD_CAT_ID":"51889","SEMIMAJOR_AXIS":"6917.837","FILE":"3853141","OBJECT_NAME":"STARLINK-3547","ELEMENT_SET_NO":"999","COUNTRY_CODE":"US","REV_AT_EPOCH":"5736","RA_OF_ASC_NODE":"251.8217","PERIAPSIS":"539.171","LAUNCH_DATE":"2022-03-03","CLASSIFICATION_TYPE":"U","MEAN_MOTION_DDOT":"0.0000000000000","TLE_LINE1":"1 51889U 22022AP  23065.89125387  .00007444  00000-0  48513-3 0  9991","MEAN_MOTION":"15.08854126","MEAN_ELEMENT_THEORY":"SGP4","EPOCH":"2023-03-06T21:23:24.334368","ARG_OF_PERICENTER":"94.7751","SITE":"AFETR","DECAY_DATE":null,"EPHEMERIS_TYPE":"0","OBJECT_TYPE":"PAYLOAD","INCLINATION":"53.2136","MEAN_MOTION_DOT":"0.00007444","REF_FRAME":"TEME","ECCENTRICITY":"0.00007680"},{"EPHEMERIS_TYPE":"0","INCLINATION":"53.2134","MEAN_MOTION_DOT":"0.00004665","OBJECT_TYPE":"PAYLOAD","ECCENTRICITY":"0.00013700","REF_FRAME":"TEME","TLE_LINE1":"1 51890U 22022AQ  23065.50117757  .00004665  00000-0  31094-3 0  9991","MEAN_ELEMENT_THEORY":"SGP4","MEAN_MOTION":"15.08843207","EPOCH":"2023-03-06T12:01:41.742048","ARG_OF_PERICENTER":"80.0385","SITE":"AFETR","DECAY_DATE":null,"CLASSIFICATION_TYPE":"U","LAUNCH_DATE":"2022-03-03","MEAN_MOTION_DDOT":"0.0000000000000","PERIAPSIS":"538.788","REV_AT_EPOCH":"5730","COUNTRY_CODE":"US","RA_OF_ASC_NODE":"253.5735","OBJECT_NAME":"STARLINK-3519","ELEMENT_SET_NO":"999","GP_ID":"227627898","MEAN_ANOMALY":"280.0762","NORAD_CAT_ID":"51890","APOAPSIS":"540.683","CENTER_NAME":"EARTH","FILE":"3853141","SEMIMAJOR_AXIS":"6917.871","BSTAR":"0.00031094000000","OBJECT_ID":"2022-022AQ","TLE_LINE2":"2 51890  53.2134 253.5735 0001370  80.0385 280.0762 15.08843207 57306","PERIOD":"95.437","TIME_SYSTEM":"UTC","RCS_SIZE":"LARGE"},{"PERIAPSIS":"538.868","MEAN_MOTION_DDOT":"0.0000000000000","LAUNCH_DATE":"2022-03-03","CLASSIFICATION_TYPE":"U","DECAY_DATE":null,"SITE":"AFETR","ARG_OF_PERICENTER":"105.1361","MEAN_ELEMENT_THEORY":"SGP4","MEAN_MOTION":"15.08849779","EPOCH":"2023-03-06T11:45:47.749536","TLE_LINE1":"1 51891U 22022AR  23065.49013599  .00008846  00000-0  57300-3 0  9992","ECCENTRICITY":"0.00012250","REF_FRAME":"TEME","INCLINATION":"53.2142","MEAN_MOTION_DOT":"0.00008846","OBJECT_TYPE":"PAYLOAD","EPHEMERIS_TYPE":"0","TIME_SYSTEM":"UTC","RCS_SIZE":"LARGE","TLE_LINE2":"2 51891  53.2142 253.6229 0001225 105.1361 254.9767 15.08849779 57357","PERIOD":"95.437","OBJECT_ID":"2022-022AR","BSTAR":"0.00057300000000","FILE":"3853141","SEMIMAJOR_AXIS":"6917.850","NORAD_CAT_ID":"51891","APOAPSIS":"540.563","CENTER_NAME":"EARTH","MEAN_ANOMALY":"254.9767","GP_ID":"227628647","ELEMENT_SET_NO":"999","OBJECT_NAME":"STARLINK-3549","RA_OF_ASC_NODE":"253.6229","REV_AT_EPOCH":"5735","COUNTRY_CODE":"US"},{"PERIAPSIS":"539.112","CLASSIFICATION_TYPE":"U","LAUNCH_DATE":"2022-03-03","MEAN_MOTION_DDOT":"0.0000000000000","ARG_OF_PERICENTER":"52.3343","SITE":"AFETR","DECAY_DATE":null,"TLE_LINE1":"1 51892U 22022AS  23065.56374603  .00000461  00000-0  47084-4 0  9991","MEAN_MOTION":"15.08829553","EPOCH":"2023-03-06T13:31:47.656992","MEAN_ELEMENT_THEORY":"SGP4","REF_FRAME":"TEME","ECCENTRICITY":"0.00009620","EPHEMERIS_TYPE":"0","OBJECT_TYPE":"PAYLOAD","INCLINATION":"53.2123","MEAN_MOTION_DOT":"0.00000461","PERIOD":"95.438","TLE_LINE2":"2 51892  53.2123 253.2900 0000962  52.3343 307.7737 15.08829553 57317","RCS_SIZE":"LARGE","TIME_SYSTEM":"UTC","BSTAR":"0.00004708400000","OBJECT_ID":"2022-022AS","CENTER_NAME":"EARTH","APOAPSIS":"540.443","NORAD_CAT_ID":"51892","SEMIMAJOR_AXIS":"6917.912","FILE":"3853141","GP_ID":"227626898","MEAN_ANOMALY":"307.7737","ELEMENT_SET_NO":"999","OBJECT_NAME":"STARLINK-3587","RA_OF_ASC_NODE":"253.2900","COUNTRY_CODE":"US","REV_AT_EPOCH":"5731"},{"PERIAPSIS":"538.924","CLASSIFICATION_TYPE":"U","LAUNCH_DATE":"2022-03-03","MEAN_MOTION_DDOT":"0.0000000000000","TLE_LINE1":"1 51893U 22022AT  23065.88021540  .00008150  00000-0  52939-3 0  9993","EPOCH":"2023-03-06T21:07:30.610560","MEAN_MOTION":"15.08853286","MEAN_ELEMENT_THEORY":"SGP4","ARG_OF_PERICENTER":"71.6999","DECAY_DATE":null,"SITE":"AFETR","EPHEMERIS_TYPE":"0","INCLINATION":"53.2137","MEAN_MOTION_DOT":"0.00008150","OBJECT_TYPE":"PAYLOAD","ECCENTRICITY":"0.00011290","REF_FRAME":"TEME","BSTAR":"0.00052939000000","OBJECT_ID":"2022-022AT","TLE_LINE2":"2 51893  53.2137 251.8699 0001129  71.6999 288.4116 15.08853286 57427","PERIOD":"95.437","TIME_SYSTEM":"UTC","RCS_SIZE":"LARGE","GP_ID":"227627148","MEAN_ANOMALY":"288.4116","NORAD_CAT_ID":"51893","APOAPSIS":"540.486","CENTER_NAME":"EARTH","FILE":"3853141","SEMIMAJOR_AXIS":"6917.840","OBJECT_NAME":"STARLINK-3579","ELEMENT_SET_NO":"999","REV_AT_EPOCH":"5742","COUNTRY_CODE":"US","RA_OF_ASC_NODE":"251.8699"},{"ECCENTRICITY":"0.00013290","REF_FRAME":"TEME","EPHEMERIS_TYPE":"0","OBJECT_TYPE":"PAYLOAD","INCLINATION":"53.2132","MEAN_MOTION_DOT":"0.00002535","ARG_OF_PERICENTER":"97.3295","DECAY_DATE":null,"SITE":"AFETR","TLE_LINE1":"1 51894U 22022AU  23065.88389732  .00002535  00000-0  17730-3 0  9995","EPOCH":"2023-03-06T21:12:48.728448","MEAN_MOTION":"15.08842674","MEAN_ELEMENT_THEORY":"SGP4","LAUNCH_DATE":"2022-03-03","CLASSIFICATION_TYPE":"U","MEAN_MOTION_DDOT":"0.0000000000000","PERIAPSIS":"538.818","RA_OF_ASC_NODE":"251.8520","REV_AT_EPOCH":"5742","COUNTRY_CODE":"US","ELEMENT_SET_NO":"999","OBJECT_NAME":"STARLINK-3595","CENTER_NAME":"EARTH","APOAPSIS":"540.657","NORAD_CAT_ID":"51894","SEMIMAJOR_AXIS":"6917.872","FILE":"3853141","GP_ID":"227628398","MEAN_ANOMALY":"262.7848","PERIOD":"95.437","TLE_LINE2":"2 51894  53.2132 251.8520 0001329  97.3295 262.7848 15.08842674 57428","RCS_SIZE":"LARGE","TIME_SYSTEM":"UTC","BSTAR":"0.00017730000000","OBJECT_ID":"2022-022AU"},{"APOAPSIS":"540.349","CENTER_NAME":"EARTH","NORAD_CAT_ID":"51895","SEMIMAJOR_AXIS":"6917.872","FILE":"3853141","GP_ID":"227628149","MEAN_ANOMALY":"296.8225","PERIOD":"95.437","TLE_LINE2":"2 51895  53.2137 252.1846 0000884  63.2858 296.8225 15.08842726 57358","RCS_SIZE":"LARGE","TIME_SYSTEM":"UTC","BSTAR":"0.00011986000000","OBJECT_ID":"2022-022AV","RA_OF_ASC_NODE":"252.1846","REV_AT_EPOCH":"5735","COUNTRY_CODE":"US","ELEMENT_SET_NO":"999","OBJECT_NAME":"STARLINK-3594","CLASSIFICATION_TYPE":"U","LAUNCH_DATE":"2022-03-03","MEAN_MOTION_DDOT":"0.0000000000000","PERIAPSIS":"539.126","REF_FRAME":"TEME","ECCENTRICITY":"0.00008840","EPHEMERIS_TYPE":"0","OBJECT_TYPE":"PAYLOAD","MEAN_MOTION_DOT":"0.00001621","INCLINATION":"53.2137","ARG_OF_PERICENTER":"63.2858","SITE":"AFETR","DECAY_DATE":null,"TLE_LINE1":"1 51895U 22022AV  23065.81029803  .00001621  00000-0  11986-3 0  9991","MEAN_MOTION":"15.08842726","EPOCH":"2023-03-06T19:26:49.749792","MEAN_ELEMENT_THEORY":"SGP4"},{"OBJECT_ID":"2022-022AW","BSTAR":"0.00034552000000","TIME_SYSTEM":"UTC","RCS_SIZE":"LARGE","TLE_LINE2":"2 51896  53.2121 252.1780 0001159  61.3248 298.7860 15.08849581 57405","PERIOD":"95.437","MEAN_ANOMALY":"298.7860","GP_ID":"227627398","FILE":"3853141","SEMIMAJOR_AXIS":"6917.851","NORAD_CAT_ID":"51896","CENTER_NAME":"EARTH","APOAPSIS":"540.518","OBJECT_NAME":"STARLINK-3593","ELEMENT_SET_NO":"999","COUNTRY_CODE":"US","REV_AT_EPOCH":"5740","RA_OF_ASC_NODE":"252.1780","PERIAPSIS":"538.914","MEAN_MOTION_DDOT":"0.0000000000000","CLASSIFICATION_TYPE":"U","LAUNCH_DATE":"2022-03-03","MEAN_MOTION":"15.08849581","MEAN_ELEMENT_THEORY":"SGP4","EPOCH":"2023-03-06T19:28:12.319680","TLE_LINE1":"1 51896U 22022AW  23065.81125370  .00005217  00000-0  34552-3 0  9997","DECAY_DATE":null,"SITE":"AFETR","ARG_OF_PERICENTER":"61.3248","INCLINATION":"53.2121","MEAN_MOTION_DOT":"0.00005217","OBJECT_TYPE":"PAYLOAD","EPHEMERIS_TYPE":"0","REF_FRAME":"TEME","ECCENTRICITY":"0.00011590"},{"SITE":"AFETR","DECAY_DATE":null,"ARG_OF_PERICENTER":"86.0411","MEAN_MOTION":"15.08855498","MEAN_ELEMENT_THEORY":"SGP4","EPOCH":"2023-03-06T19:21:31.516128","TLE_LINE1":"1 51897U 22022AX  23065.80661477  .00008272  00000-0  53697-3 0  9995","REF_FRAME":"TEME","ECCENTRICITY":"0.00012550","OBJECT_TYPE":"PAYLOAD","INCLINATION":"53.2137","MEAN_MOTION_DOT":"0.00008272","EPHEMERIS_TYPE":"0","PERIAPSIS":"538.830","MEAN_MOTION_DDOT":"0.0000000000000","CLASSIFICATION_TYPE":"U","LAUNCH_DATE":"2022-03-03","ELEMENT_SET_NO":"999","OBJECT_NAME":"STARLINK-3598","RA_OF_ASC_NODE":"252.1995","COUNTRY_CODE":"US","REV_AT_EPOCH":"5735","RCS_SIZE":"LARGE","TIME_SYSTEM":"UTC","PERIOD":"95.437","TLE_LINE2":"2 51897  53.2137 252.1995 0001255  86.0411 274.0724 15.08855498 57358","OBJECT_ID":"2022-022AX","BSTAR":"0.00053697000000","SEMIMAJOR_AXIS":"6917.833","FILE":"3853141","CENTER_NAME":"EARTH","APOAPSIS":"540.566","NORAD_CAT_ID":"51897","MEAN_ANOMALY":"274.0724","GP_ID":"227627648"}];
